ASTROCAST-0403          
1 55111U 23001DG  26068.82333059  .00013959  00000+0  51317-3 0  9990
2 55111  97.5604 161.3228 0004771 338.0704  22.0330 15.28004949129377
STARLINK-32733          
1 62477U 24254R   26068.66670139  .00043195  00000+0  15721-2 0  9992
2 62477  43.0020  16.1192 0001509 263.1440 104.9916 15.27536121  5875
