[{"OBJECT_NAME":"ASTROCAST-0403","OBJECT_ID":"2023-001DG","EPOCH":"2026-03-09T19:45:35.762976","MEAN_MOTION":15.28004949,"ECCENTRICITY":0.00047706,"INCLINATION":97.5604,"RA_OF_ASC_NODE":161.3228,"ARG_OF_PERICENTER":338.0704,"MEAN_ANOMALY":22.033,"EPHEMERIS_TYPE":0,"CLASSIFICATION_TYPE":"U","NORAD_CAT_ID":55111,"ELEMENT_SET_NO":999,"REV_AT_EPOCH":12937,"BSTAR":0.0005131719,"MEAN_MOTION_DOT":0.00013959,"MEAN_MOTION_DDOT":0},{"OBJECT_NAME":"STARLINK-32733","OBJECT_ID":"2024-254R","EPOCH":"2026-03-09T16:00:03.000096","MEAN_MOTION":15.27536121,"ECCENTRICITY":0.00015086,"INCLINATION":43.002,"RA_OF_ASC_NODE":16.1192,"ARG_OF_PERICENTER":263.144,"MEAN_ANOMALY":104.9916,"EPHEMERIS_TYPE":0,"CLASSIFICATION_TYPE":"U","NORAD_CAT_ID":62477,"ELEMENT_SET_NO":999,"REV_AT_EPOCH":587,"BSTAR":0.0015721134,"MEAN_MOTION_DOT":0.00043195,"MEAN_MOTION_DDOT":0}]
